#dP2022 11  5  0  0  0.00000000      96 __u+U ITR14 FIT  IAC
## 2234 518400.00000000   900.00000000 59888 0.0000000000000
+  128   C01C02C03C04C05C06C07C08C09C10C11C12C13C14C16C19C20
+        C21C22C23C24C25C26C27C28C29C30C32C33C34C35C36C37C38
+        C39C40C41C42C43C44C45C46C59C60E01E02E03E04E05E07E08
+        E09E10E11E12E13E14E15E18E19E21E24E25E26E27E30E31E33
+        E34E36G01G02G03G04G05G06G07G08G09G10G11G12G13G14G15
+        G16G17G18G19G20G21G22G23G24G25G26G27G29G30G31G32J02
+        J03J04J07R01R02R03R04R05R06R07R08R09R10R11R12R13R14
+        R15R17R18R19R20R21R22R23R24  0  0  0  0  0  0  0  0
++        17 17 17 17 17  9  9  9  9  9  9  9  9  9  9  7  7
++         7  7  7  7  7  7  7  7  7  7  7  7  8  7  7  7  8
++         8  8  7  7  8  7  7  7  0 17  4  9  4  4  4  4  4
++         4  4  4  5  4  5  4  5  4  4  5  4  4  4  4  5  5
++         4  4  4  4  4  4  4  4  4  4  4  4  4  4  4  4  4
++         4  4  4  4  4  4  4  3  4  4  4  4  4  4  4  4  0
++         8  8 17  7  6  6  6  6 15  6  6  6 15  6  6  7  6
++         6  6  6  7  7  6  8 15  6  0  0  0  0  0  0  0  0
%c M  cc GPS ccc cccc cccc cccc cccc ccccc ccccc ccccc ccccc
%c cc cc ccc ccc cccc cccc cccc cccc ccccc ccccc ccccc ccccc
%f  0.0000000  0.000000000  0.00000000000  0.000000000000000
%f  0.0000000  0.000000000  0.00000000000  0.000000000000000
%i    0    0    0    0      0      0      0      0         0
%i    0    0    0    0      0      0      0      0         0
/* INFORMATION & ANALYSIS CENTER (IAC)            RAPID DATA
/* S/V CLOCKS ARE ALIGNED TO GNSS TIME                      
/* G:C1WC2W R:C1PC2P E:C1XC5X C:C2IC6I J:C1CC2S             
/* PCV:IGS14_2233 OL/AL:FES2004  NONE     YN ORB:CoN CLK:CoN
*  2022 11 05  9 45  0.00000000
PC01 -34385.390098  24417.924882   -839.794877    851.873049
PC02   4602.157342  41930.399129   -201.074470    497.478518
PC03 -14746.161033  39508.005677   -972.071121   -204.244950
PC04 -39659.930761  14382.953987   -460.435977 999999.999999
PC05  21963.814912  36028.806767     25.753196    -33.129450
PC06 -15693.103459  26182.137939  28996.945283      8.249588
PC07  -9977.682278  40656.360467   5761.506407    257.447579
PC08   -216.105963  25390.893448 -33612.781142    507.055510
PC09  -4668.447233  25626.536613  33435.576661   -815.341599
PC10  -4417.744608  42198.101738   -719.300889     73.152333
PC11 -24823.812110    861.553297  12827.910388   -310.293037
PC12 -11443.702866 -11513.883239  22745.319138    288.470081
PC13   8365.353340  30011.782658 -28140.840290    125.351287
PC14 -15550.516263  -3121.690099 -22948.341501    626.921168
PC16 -20787.258844  25360.819156  26534.679061    120.943807
PC19  15731.403266  -8135.052031  21578.722142   -918.477152
PC20  13353.936297  12114.915599  21308.228177    846.144315
PC21  -2704.985711 -26541.525701  -8152.935957   -755.209055
PC22   9155.309375 -24632.779749   9353.963251   -810.967144
PC23  -8586.981831  13896.949581  22629.047271   -880.856245
PC24 -22590.432364 -16409.160904    312.547602   -849.418061
PC25 -21966.070984   -326.726913  17214.264651     20.085985
PC26 -11420.649735 -20858.199976 -14646.280815    -31.532047
PC27   2299.633136  16108.312784 -22686.062044     46.686351
PC28 -16332.294368  17609.639021 -14209.800545     32.434711
PC29  26013.794117  -9420.748196  -3636.050141     36.353494
PC30  19818.851029   5263.577508 -18937.783928      0.844497
PC32   2860.469827  26563.779247   8070.118076   -730.337273
PC33 -15715.837082   8126.244437 -21586.214174   -918.593556
PC34 -20624.441783  -4451.019680  18248.393123     32.450831
PC35  17010.471508 -17935.984845  12972.594837     74.225998
PC36  22208.523473   1376.837148 -16811.490145   -864.875140
PC37   9662.777555  21012.501318  15609.626292   -737.880085
PC38  -8605.827129  22453.092416 -34596.840063     35.999059
PC39 -24215.476306  25853.984553  22737.804204     -0.787602
PC40 -15894.856318  38011.915186   9459.131084     -7.459357
PC41  -9353.911996  24374.715746  -9805.735147   -244.211183
PC42 -12954.164004 -13335.508672 -20771.056464   -605.699533
PC43 -26109.527725   8807.852746   4349.692102     23.350774
PC44  -2670.048655 -16228.235291  22539.899387    104.061555
PC45   8123.893621 -14067.195550 -22690.675654    -18.565624
PC46  23184.563581  15351.435872  -2060.027074    -10.954694
PC59      0.000000      0.000000      0.000000 999999.999999
PC60   7253.195500  41510.628061  -1468.577180     -0.950450
PE01 -13744.435472   9990.113869  24242.048740   -560.083052
PE02  13615.482804 -10235.374674 -24207.642914      0.722334
PE03  21255.327850 -18997.201146   7944.571719   -616.896155
PE04 -10341.529094  25779.984509  10221.823631  -1151.911441
PE05  19925.004795   -875.214867  21867.720223   -127.658915
PE07  -7037.553376 -17451.910970 -22851.023212   -718.967633
PE08  10302.695414 -25771.772812 -10286.639588   -627.224769
PE09   6783.548948  17519.583886  22870.325363   -718.244208
PE10   6431.545652  16223.426996 -23909.722162   -488.647710
PE11  17770.280536  14376.238110 -18815.722588   1468.962578
PE12  -4976.371720  15529.187782 -24702.338007   -260.426806
PE13 -16967.052981 -14544.639415  19417.898389    430.650352
PE14  21722.333001 -11901.677043  -8354.533414     47.880381
PE15   5251.197677 -15412.362025  24726.961725    709.459719
PE18 -19155.550831  24071.649310  -4737.595877   -779.043210
PE19 -21883.662615  17020.818894 -10364.487315  -4078.103321
PE21 -19205.739690  -9896.264186  20239.757698   -492.844194
PE24  13518.728835  26087.751866  -3475.806918   -930.341117
PE25  19206.509190  10208.845393 -20062.371807   -591.935099
PE26 -29167.904081  -4709.870245   1910.826600  -1809.353680
PE27 -14134.957727 -25640.855763   4407.862553   -432.215674
PE30    -65.170478 -25834.298726 -14469.515164   -973.542392
PE31    773.504150  26131.488801  13886.951062   -507.417831
PE33 -24238.086421   7170.281904 -15399.821609   -455.346250
PE34  24091.175762  -7324.247626  15544.114597    -13.044083
PE36  29013.451181   5156.759255  -2773.251374   -456.299540
PG01  17944.679075  13743.530101 -14530.505289    256.465643
PG02 -19485.082931 -12076.160658  13921.516355   -639.263068
PG03  12134.468667  22783.725792   6367.498552   -370.754485
PG04   8927.183854  12530.429804  21644.708299    -91.782185
PG05  -5439.315810 -25262.069995   5680.572321   -103.113886
PG06  18740.567179  -7666.036407  17293.080572    510.427272
PG07  26034.103085   6417.611425   1347.055263    291.058421
PG08   -131.636796  19507.596038 -17893.482555    -92.306864
PG09  17466.325199   1219.934896  19904.871509   -273.208767
PG10 -13807.569337   5395.607314 -21875.995316    -10.573397
PG11   7132.183189 -13649.218212  21641.346428    -35.121285
PG12 -10184.123811 -23852.287864   5708.548917   -300.601397
PG13   9288.333831 -20606.278696 -13970.820263    419.030676
PG14  15158.992012  -3068.062107 -21588.028485    -87.000646
PG15  -2860.437326 -19671.252071 -17927.142554    -15.002917
PG16  -1453.405993  24146.121333  10136.151979   -526.840178
PG17  21425.513800 -10934.741153 -10895.974839    675.197494
PG18 -26127.719996  -5064.033431  -1162.406657    -10.688174
PG19  20135.127946 -17065.399000  -1370.164559    233.248796
PG20   3140.004791 -20315.967085  16955.443822    472.629533
PG21  10841.617417  14642.168714 -18977.252926    156.690540
PG22 -18064.853102  19266.058828   2090.719284    358.792831
PG23 -16688.939976  -6420.931221 -19690.634247     -1.133036
PG24 -14789.291588 -14532.536408 -17159.945208     71.786803
PG25 -15999.676371 -15683.383159  14179.218017    389.551834
PG26  -7579.436179  17384.750441  18369.465819    234.842738
PG27 -10648.410459  22149.490476  -9753.371094    184.663664
PG29 -16045.903623  -3911.559322  20777.152752   -564.961866
PG30  24544.071623  -2273.982478 -10129.157339   -536.944747
PG31 -18191.965151   8504.111232  17455.663111   -199.176304
PG32 -20535.351566  14002.629919  -8927.761510   -286.085895
PJ02      0.000000      0.000000      0.000000 999999.999999
PJ03 -34553.876662  18788.558184 -10518.499100     -4.072119
PJ04 -20659.496334  30922.565274 -14761.268286    112.567600
PJ07 -25398.419190  33654.809150     55.604964      0.005027
PR01  10789.763404   2366.282573  22986.042709     17.369812
PR02  12480.865355 -16690.591016  14794.112053    -23.215960
PR03   6553.361871 -24618.850454  -1803.144246     66.739480
PR04  -2621.646680 -18677.869700 -17162.417151    163.787589
PR05 -10473.582208  -2642.351417 -23103.423463    102.404867
PR06 -11793.994321  17845.538583 -13891.221531    -78.672732
PR07  -6129.784810  24586.198031   2701.689262     43.775693
PR08   2934.652699  18532.013998  17311.880667    -67.933295
PR09 -11290.673033   4361.722268  22462.905387     85.896686
PR10   1696.134727  15580.694670  20093.904178    -87.520054
PR11  15178.100114  19657.735277   5861.912947     22.117774
PR12  19047.135959  11242.985127 -12664.116497     22.597274
PR13  12254.198847  -2676.917376 -22223.453317    -28.537695
PR14  -3029.354767 -16557.858406 -19147.113963     24.161802
PR15 -15493.377867 -19687.205005  -4778.248833     92.839201
PR17   8908.507605 -11732.983685  20823.516771    575.373659
PR18  -8947.413204  -8331.984606  22399.418795     50.505608
PR19 -21653.167833  -1913.148257  13361.325600   -209.850420
PR20 -23375.069138   7498.421578  -6857.586201    -81.571058
PR21  -7393.674060  11554.073084 -21509.110163   -347.239718
PR22   9528.935832   8777.456905 -21945.067907     15.407384
PR23  23944.132774  -1114.591515  -8718.161324    -60.968102
PR24  22820.017812  -8582.539328   7483.412673    124.599627
EOF
